ONEWEB-0300             
1 49089U 21075Q   25154.51019706  .00000419  00000+0  11297-2 0  9996
2 49089  87.8884  65.9754 0001605  75.5938 284.5369 13.12444597186529
ONEWEB-0301             
1 49090U 21075R   25154.49397463  .00000122  00000+0  30395-3 0  9996
2 49090  87.8886  65.9844 0001492  75.6424 284.4870 13.12443981185888
ONEWEB-0302             
1 49091U 21075S   25154.78594225 -.00000312  00000+0 -90292-3 0  9999
2 49091  87.8889  65.9275 0002335  82.3340 277.8054 13.12444491185910
ONEWEB-0304             
1 49092U 21075T   25155.53776502  .00000018  00000+0  13537-4 0  9993
2 49092  87.9069  81.0553 0002136  76.4339 283.7030 13.17651344184822
ONEWEB-0305             
1 49093U 21075U   25155.22727541  .00000086  00000+0  18765-3 0  9991
2 49093  87.9063  81.0949 0002259  69.2147 290.9226 13.17648906184804
ONEWEB-0308             
1 49094U 21075V   25155.46557924 -.00000370  00000+0 -10627-2 0  9990
2 49094  87.8885  65.7869 0001908  79.1398 280.9945 13.12441434186030
ONEWEB-0309             
1 49095U 21075W   25155.23066900  .00000124  00000+0  28610-3 0  9992
2 49095  87.9067  81.1102 0002444  85.8663 274.2747 13.17649260184790
ONEWEB-0310             
1 49096U 21075X   25155.48017243 -.00000278  00000+0 -80703-3 0  9999
2 49096  87.8895  65.8245 0002069  80.8787 279.2576 13.12442935186647
